{"fetched_at":"2026-07-14T06:34:34.779Z","source":"https://celestrak.org/NORAD/elements/gp.php?NAME=BRO&FORMAT=JSON","constellation":"unseenlabs","records":[{"OBJECT_NAME":"BRO-1","OBJECT_ID":"2019-054A","EPOCH":"2026-07-13T00:10:27.486048","CLASSIFICATION_TYPE":"U","MEAN_MOTION":16.13463787,"ECCENTRICITY":0.00089724,"INCLINATION":44.9818,"RA_OF_ASC_NODE":132.4627,"ARG_OF_PERICENTER":179.7711,"MEAN_ANOMALY":180.321,"EPHEMERIS_TYPE":0,"NORAD_CAT_ID":44495,"ELEMENT_SET_NO":999,"REV_AT_EPOCH":38387,"BSTAR":0.00089524323,"MEAN_MOTION_DOT":0.0110501,"MEAN_MOTION_DDOT":0.00079549412},{"OBJECT_NAME":"BRO-5","OBJECT_ID":"2022-002CF","EPOCH":"2026-07-13T19:36:24.307200","CLASSIFICATION_TYPE":"U","MEAN_MOTION":15.48826108,"ECCENTRICITY":0.0005239,"INCLINATION":97.2993,"RA_OF_ASC_NODE":268.7469,"ARG_OF_PERICENTER":208.545,"MEAN_ANOMALY":151.5515,"EPHEMERIS_TYPE":0,"NORAD_CAT_ID":51061,"ELEMENT_SET_NO":999,"REV_AT_EPOCH":25037,"BSTAR":0.00035719,"MEAN_MOTION_DOT":0.00019147,"MEAN_MOTION_DDOT":0},{"OBJECT_NAME":"BRO-6","OBJECT_ID":"2022-047AE","EPOCH":"2026-07-13T20:08:18.959712","CLASSIFICATION_TYPE":"U","MEAN_MOTION":15.5249345,"ECCENTRICITY":0.0002873,"INCLINATION":97.3397,"RA_OF_ASC_NODE":286.4413,"ARG_OF_PERICENTER":318.657,"MEAN_ANOMALY":41.4465,"EPHEMERIS_TYPE":0,"NORAD_CAT_ID":52422,"ELEMENT_SET_NO":999,"REV_AT_EPOCH":23528,"BSTAR":0.0004598,"MEAN_MOTION_DOT":0.00028117,"MEAN_MOTION_DDOT":0},{"OBJECT_NAME":"BRO-8","OBJECT_ID":"2023-001C","EPOCH":"2026-07-13T20:12:24.169824","CLASSIFICATION_TYPE":"U","MEAN_MOTION":15.50693793,"ECCENTRICITY":0.0004995,"INCLINATION":97.3193,"RA_OF_ASC_NODE":260.4384,"ARG_OF_PERICENTER":44.9279,"MEAN_ANOMALY":315.2376,"EPHEMERIS_TYPE":0,"NORAD_CAT_ID":55011,"ELEMENT_SET_NO":999,"REV_AT_EPOCH":19633,"BSTAR":0.00038796,"MEAN_MOTION_DOT":0.00022226,"MEAN_MOTION_DDOT":0},{"OBJECT_NAME":"BRO-11","OBJECT_ID":"2023-174J","EPOCH":"2026-07-13T20:15:29.465856","CLASSIFICATION_TYPE":"U","MEAN_MOTION":15.27582879,"ECCENTRICITY":0.0011956,"INCLINATION":97.3902,"RA_OF_ASC_NODE":271.4458,"ARG_OF_PERICENTER":111.8525,"MEAN_ANOMALY":248.3987,"EPHEMERIS_TYPE":0,"NORAD_CAT_ID":58264,"ELEMENT_SET_NO":999,"REV_AT_EPOCH":14882,"BSTAR":0.00010059,"MEAN_MOTION_DOT":0.00002643,"MEAN_MOTION_DDOT":0},{"OBJECT_NAME":"BRO-13","OBJECT_ID":"2024-043K","EPOCH":"2026-07-13T20:03:32.448672","CLASSIFICATION_TYPE":"U","MEAN_MOTION":14.96648522,"ECCENTRICITY":0.0007503,"INCLINATION":97.8522,"RA_OF_ASC_NODE":325.9437,"ARG_OF_PERICENTER":267.6536,"MEAN_ANOMALY":92.3826,"EPHEMERIS_TYPE":0,"NORAD_CAT_ID":59107,"ELEMENT_SET_NO":999,"REV_AT_EPOCH":12860,"BSTAR":0.000078083,"MEAN_MOTION_DOT":0.00000831,"MEAN_MOTION_DDOT":0},{"OBJECT_NAME":"BRO-12","OBJECT_ID":"2024-043L","EPOCH":"2026-07-13T21:27:56.446848","CLASSIFICATION_TYPE":"U","MEAN_MOTION":14.96891588,"ECCENTRICITY":0.0007076,"INCLINATION":97.8506,"RA_OF_ASC_NODE":326.1716,"ARG_OF_PERICENTER":261.5908,"MEAN_ANOMALY":98.4511,"EPHEMERIS_TYPE":0,"NORAD_CAT_ID":59108,"ELEMENT_SET_NO":999,"REV_AT_EPOCH":12863,"BSTAR":0.000049057,"MEAN_MOTION_DOT":0.00000503,"MEAN_MOTION_DDOT":0},{"OBJECT_NAME":"BRO-14","OBJECT_ID":"2024-149CM","EPOCH":"2026-07-13T16:17:18.650976","CLASSIFICATION_TYPE":"U","MEAN_MOTION":14.96232953,"ECCENTRICITY":0.0006853,"INCLINATION":97.6862,"RA_OF_ASC_NODE":269.98,"ARG_OF_PERICENTER":22.2119,"MEAN_ANOMALY":337.9398,"EPHEMERIS_TYPE":0,"NORAD_CAT_ID":60551,"ELEMENT_SET_NO":999,"REV_AT_EPOCH":10395,"BSTAR":0.000073522,"MEAN_MOTION_DOT":0.00000772,"MEAN_MOTION_DDOT":0},{"OBJECT_NAME":"BRO-15","OBJECT_ID":"2024-149CP","EPOCH":"2026-07-13T17:28:39.567936","CLASSIFICATION_TYPE":"U","MEAN_MOTION":14.96221041,"ECCENTRICITY":0.0007955,"INCLINATION":97.6795,"RA_OF_ASC_NODE":269.6064,"ARG_OF_PERICENTER":8.972,"MEAN_ANOMALY":351.1642,"EPHEMERIS_TYPE":0,"NORAD_CAT_ID":60553,"ELEMENT_SET_NO":999,"REV_AT_EPOCH":10397,"BSTAR":0.000045217,"MEAN_MOTION_DOT":0.00000453,"MEAN_MOTION_DDOT":0},{"OBJECT_NAME":"BRO-16","OBJECT_ID":"2025-009AX","EPOCH":"2026-07-13T17:39:29.285568","CLASSIFICATION_TYPE":"U","MEAN_MOTION":15.24122885,"ECCENTRICITY":0.0001973,"INCLINATION":97.406,"RA_OF_ASC_NODE":274.8949,"ARG_OF_PERICENTER":156.9056,"MEAN_ANOMALY":203.227,"EPHEMERIS_TYPE":0,"NORAD_CAT_ID":62654,"ELEMENT_SET_NO":999,"REV_AT_EPOCH":8284,"BSTAR":0.000092096,"MEAN_MOTION_DOT":0.00002167,"MEAN_MOTION_DDOT":0},{"OBJECT_NAME":"BRO-18","OBJECT_ID":"2025-135Y","EPOCH":"2026-07-13T21:02:37.845024","CLASSIFICATION_TYPE":"U","MEAN_MOTION":15.22166609,"ECCENTRICITY":0.0002435,"INCLINATION":97.4655,"RA_OF_ASC_NODE":309.7042,"ARG_OF_PERICENTER":117.228,"MEAN_ANOMALY":242.9205,"EPHEMERIS_TYPE":0,"NORAD_CAT_ID":64550,"ELEMENT_SET_NO":999,"REV_AT_EPOCH":5893,"BSTAR":0.00010744,"MEAN_MOTION_DOT":0.00002394,"MEAN_MOTION_DDOT":0},{"OBJECT_NAME":"BRO-17","OBJECT_ID":"2025-276G","EPOCH":"2026-07-13T17:54:20.328768","CLASSIFICATION_TYPE":"U","MEAN_MOTION":15.18152035,"ECCENTRICITY":0.00051,"INCLINATION":97.4187,"RA_OF_ASC_NODE":267.342,"ARG_OF_PERICENTER":265.5858,"MEAN_ANOMALY":94.4793,"EPHEMERIS_TYPE":0,"NORAD_CAT_ID":66672,"ELEMENT_SET_NO":999,"REV_AT_EPOCH":3442,"BSTAR":0.00010809,"MEAN_MOTION_DOT":0.0000214,"MEAN_MOTION_DDOT":0},{"OBJECT_NAME":"BRO-20","OBJECT_ID":"2025-276J","EPOCH":"2026-07-13T17:20:02.008608","CLASSIFICATION_TYPE":"U","MEAN_MOTION":15.18320397,"ECCENTRICITY":0.0004687,"INCLINATION":97.4163,"RA_OF_ASC_NODE":267.3068,"ARG_OF_PERICENTER":270.2479,"MEAN_ANOMALY":89.8218,"EPHEMERIS_TYPE":0,"NORAD_CAT_ID":66674,"ELEMENT_SET_NO":999,"REV_AT_EPOCH":3442,"BSTAR":0.000081653,"MEAN_MOTION_DOT":0.00001608,"MEAN_MOTION_DDOT":0},{"OBJECT_NAME":"BRO-19","OBJECT_ID":"2026-067G","EPOCH":"2026-07-13T20:41:31.989120","CLASSIFICATION_TYPE":"U","MEAN_MOTION":15.18982999,"ECCENTRICITY":0.0002469,"INCLINATION":97.449,"RA_OF_ASC_NODE":152.9405,"ARG_OF_PERICENTER":106.5048,"MEAN_ANOMALY":253.6458,"EPHEMERIS_TYPE":0,"NORAD_CAT_ID":68422,"ELEMENT_SET_NO":999,"REV_AT_EPOCH":1599,"BSTAR":0.000088651,"MEAN_MOTION_DOT":0.00001786,"MEAN_MOTION_DDOT":0},{"OBJECT_NAME":"BRO-21","OBJECT_ID":"2026-100AD","EPOCH":"2026-07-13T16:39:46.685376","CLASSIFICATION_TYPE":"U","MEAN_MOTION":15.21631889,"ECCENTRICITY":0.0005177,"INCLINATION":97.3978,"RA_OF_ASC_NODE":92.1503,"ARG_OF_PERICENTER":343.0236,"MEAN_ANOMALY":17.0826,"EPHEMERIS_TYPE":0,"NORAD_CAT_ID":69007,"ELEMENT_SET_NO":999,"REV_AT_EPOCH":1083,"BSTAR":0.000061678,"MEAN_MOTION_DOT":0.00001324,"MEAN_MOTION_DDOT":0},{"OBJECT_NAME":"BRO-22","OBJECT_ID":"2026-132C","EPOCH":"2026-07-13T16:57:24.965280","CLASSIFICATION_TYPE":"U","MEAN_MOTION":14.99802359,"ECCENTRICITY":0.0016418,"INCLINATION":97.683,"RA_OF_ASC_NODE":258.0466,"ARG_OF_PERICENTER":186.1415,"MEAN_ANOMALY":173.961,"EPHEMERIS_TYPE":0,"NORAD_CAT_ID":69504,"ELEMENT_SET_NO":999,"REV_AT_EPOCH":475,"BSTAR":0.000056169,"MEAN_MOTION_DOT":0.00000637,"MEAN_MOTION_DDOT":0}]}
