BRO-1                   
1 44495U 19054A   26194.00726257  .01105010  79549-3  89524-3 0  9992
2 44495  44.9818 132.4627 0008972 179.7711 180.3210 16.13463787383876
BRO-5                   
1 51061U 22002CF  26194.81694800  .00019147  00000+0  35719-3 0  9996
2 51061  97.2993 268.7469 0005239 208.5450 151.5515 15.48826108250372
BRO-6                   
1 52422U 22047AE  26194.83910833  .00028117  00000+0  45980-3 0  9994
2 52422  97.3397 286.4413 0002873 318.6570  41.4465 15.52493450235285
BRO-8                   
1 55011U 23001C   26194.84194641  .00022226  00000+0  38796-3 0  9996
2 55011  97.3193 260.4384 0004995  44.9279 315.2376 15.50693793196332
BRO-11                  
1 58264U 23174J   26194.84409104  .00002643  00000+0  10059-3 0  9996
2 58264  97.3902 271.4458 0011956 111.8525 248.3987 15.27582879148821
BRO-13                  
1 59107U 24043K   26194.83579223  .00000831  00000+0  78083-4 0  9997
2 59107  97.8522 325.9437 0007503 267.6536  92.3826 14.96648522128604
BRO-12                  
1 59108U 24043L   26194.89440332  .00000503  00000+0  49057-4 0  9997
2 59108  97.8506 326.1716 0007076 261.5908  98.4511 14.96891588128634
BRO-14                  
1 60551U 24149CM  26194.67868809  .00000772  00000+0  73522-4 0  9999
2 60551  97.6862 269.9800 0006853  22.2119 337.9398 14.96232953103954
BRO-15                  
1 60553U 24149CP  26194.72823574  .00000453  00000+0  45217-4 0  9993
2 60553  97.6795 269.6064 0007955   8.9720 351.1642 14.96221041103971
BRO-16                  
1 62654U 25009AX  26194.73575562  .00002167  00000+0  92096-4 0  9996
2 62654  97.4060 274.8949 0001973 156.9056 203.2270 15.24122885 82842
BRO-18                  
1 64550U 25135Y   26194.87682691  .00002394  00000+0  10744-3 0  9991
2 64550  97.4655 309.7042 0002435 117.2280 242.9205 15.22166609 58935
BRO-17                  
1 66672U 25276G   26194.74606862  .00002140  00000+0  10809-3 0  9997
2 66672  97.4187 267.3420 0005100 265.5858  94.4793 15.18152035 34424
BRO-20                  
1 66674U 25276J   26194.72224547  .00001608  00000+0  81653-4 0  9997
2 66674  97.4163 267.3068 0004687 270.2479  89.8218 15.18320397 34427
BRO-19                  
1 68422U 26067G   26194.86217580  .00001786  00000+0  88651-4 0  9995
2 68422  97.4490 152.9405 0002469 106.5048 253.6458 15.18982999 15996
BRO-21                  
1 69007U 26100AD  26194.69429034  .00001324  00000+0  61678-4 0  9991
2 69007  97.3978  92.1503 0005177 343.0236  17.0826 15.21631889 10838
BRO-22                  
1 69504U 26132C   26194.70653895  .00000637  00000+0  56169-4 0  9999
2 69504  97.6830 258.0466 0016418 186.1415 173.9610 14.99802359  4759
